STARLINK-4164           
1 53282U 22086AS  25320.34435238  .00011769  00000+0  75569-3 0  9990
2 53282  53.2172 332.9486 0001199  72.6229 287.4894 15.08869817184081
STARLINK-4175           
1 53283U 22086AT  25320.73073558 -.00004792  00000+0 -28320-3 0  9990
2 53283  53.2179 331.2096 0001050  82.8172 277.2940 15.08838487184149
STARLINK-4173           
1 53285U 22086AV  25320.25602809  .00009688  00000+0  62538-3 0  9992
2 53285  53.2181 333.3416 0001289  82.6995 277.4144 15.08874185184062
STARLINK-4165           
1 53286U 22086AW  25320.76382917  .00002483  00000+0  17396-3 0  9992
2 53286  53.2164 330.7583 0001283  81.7310 278.3828 15.08860201184147
STARLINK-4107           
1 53287U 22086AX  25320.31490821  .00006174  00000+0  40553-3 0  9990
2 53287  53.2173 333.0785 0001356  81.1454 278.9692 15.08850661184078
STARLINK-4162           
1 53288U 22086AY  25320.32594600  .00002591  00000+0  18083-3 0  9994
2 53288  53.2185 333.0293 0001544  92.3873 267.7296 15.08841861184072
STARLINK-4176           
1 53289U 22086AZ  25320.29146925  .00004633  00000+0  30900-3 0  9995
2 53289  53.2178 328.3270 0001378  92.0757 268.0393 15.08837651184131
STARLINK-4149           
1 53290U 22086BA  25320.31858375  .00002105  00000+0  15031-3 0  9999
2 53290  53.2186 333.0657 0001368  88.9387 271.1762 15.08841847184076
STARLINK-4166           
1 53291U 22086BB  25320.32454360  .00012317  00000+0  78993-3 0  9999
2 53291  53.2180 327.8256 0001044  77.3326 282.7783 15.08872452184148
STARLINK-4159           
1 53292U 22086BC  25320.32965046  .00005406  00000+0  35738-3 0  9999
2 53292  53.2175 333.1964 0001418 103.2945 256.8206 15.08848195184071
STARLINK-4148           
1 53293U 22086BD  25320.28270277  .00008230  00000+0  53438-3 0  9995
2 53293  53.2166 323.2133 0001380  94.8913 265.2237 15.08853396184200
STARLINK-4146           
1 53294U 22086BE  25320.69852341  .00005252  00000+0  34752-3 0  9998
2 53294  53.2177 321.1930 0001353  93.5880 266.5266 15.08869221184316
STARLINK-4522           
1 53388U 22097A   25320.58538661  .00014897  00000+0  95106-3 0  9993
2 53388  53.2170 271.8606 0001805  84.5720 275.5478 15.08880739181778
STARLINK-4523           
1 53389U 22097B   25320.57804461  .00003386  00000+0  23077-3 0  9996
2 53389  53.2169 271.8988 0001536 102.9399 257.1765 15.08832943181597
STARLINK-4517           
1 53390U 22097C   25320.58172012  .00015153  00000+0  96762-3 0  9995
2 53390  53.2168 271.8785 0001482 113.6306 246.4842 15.08858326181747
STARLINK-4521           
1 53391U 22097D   25320.24314898  .00020261  00000+0  12869-2 0  9990
2 53391  53.2166 273.4032 0001319  96.1079 264.0064 15.08856905181541
STARLINK-4535           
1 53392U 22097E   25320.16954938  .00005819  00000+0  38342-3 0  9994
2 53392  53.2166 273.7316 0001366 101.9468 258.1677 15.08839959181532
STARLINK-4530           
1 53393U 22097F   25320.10699497 -.00001889  00000+0 -10061-3 0  9998
2 53393  53.2184 274.0134 0001326  77.4199 282.6942 15.08842331181523
STARLINK-4544           
1 53394U 22097G   25320.25137447  .00004753  00000+0  31634-3 0  9997
2 53394  53.2167 262.9759 0001591  89.7606 270.3568 15.08859745181690
STARLINK-4534           
1 53395U 22097H   25320.16681654  .00003273  00000+0  22359-3 0  9992
2 53395  53.2179 273.7546 0001220  78.2193 281.8937 15.08851233181377
STARLINK-4524           
1 53396U 22097J   25320.15115074  .00003144  00000+0  21561-3 0  9991
2 53396  53.2173 273.8136 0001342  96.9890 263.1255 15.08830315181378
STARLINK-4515           
1 53397U 22097K   25320.55962266  .00008160  00000+0  52975-3 0  9995
2 53397  53.2175 271.9835 0001318  85.6572 274.4571 15.08870649181438
STARLINK-4512           
1 53398U 22097L   25320.14379249  .00009984  00000+0  64401-3 0  9996
2 53398  53.2164 273.8477 0001436  71.7185 288.3963 15.08866621181374
STARLINK-4528           
1 53399U 22097M   25320.15482701  .00006399  00000+0  41961-3 0  9999
2 53399  53.2170 273.7966 0001502  86.8093 273.3071 15.08854923181379
STARLINK-4520           
1 53400U 22097N   25320.59642465  .00003581  00000+0  24288-3 0  9998
2 53400  53.2157 271.8140 0001544  78.5627 281.5539 15.08852311181444
STARLINK-4525           
1 53401U 22097P   25320.14747904  .00007137  00000+0  46616-3 0  9994
2 53401  53.2178 273.8314 0001362 110.5749 249.5389 15.08832505181375
STARLINK-4499           
1 53402U 22097Q   25320.12906553  .00009184  00000+0  59400-3 0  9999
2 53402  53.2166 273.9125 0001365  89.9774 270.1374 15.08862527181375
STARLINK-4507           
1 53403U 22097R   25320.17423097  .00008883  00000+0  57513-3 0  9990
2 53403  53.2165 274.0583 0001211  77.1682 282.9445 15.08864665181377
STARLINK-4509           
1 53404U 22097S   25320.84117602  .00005571  00000+0  36762-3 0  9991
2 53404  53.2158 260.6494 0001540  71.4189 288.6971 15.08859635181611
STARLINK-4510           
1 53405U 22097T   25320.58906804  .00008249  00000+0  53538-3 0  9998
2 53405  53.2159 271.8464 0001642  91.3786 268.7394 15.08869090181446
STARLINK-4533           
1 53406U 22097U   25320.16678854  .00017538  00000+0  11163-2 0  9992
2 53406  53.2156 263.7429 0001384  92.4144 267.7007 15.08871135181519
STARLINK-4491           
1 53408U 22097W   25320.84023226 -.00000402  00000+0 -71861-5 0  9994
2 53408  53.2156 260.7243 0001086  81.5298 278.5817 15.08831849181618
STARLINK-4490           
1 53409U 22097X   25320.83381203  .00002760  00000+0  19136-3 0  9998
2 53409  53.2173 250.9443 0001366  89.2078 270.9071 15.08848935181750
STARLINK-4492           
1 53410U 22097Y   25320.24037800 -.00005337  00000+0 -31751-3 0  9998
2 53410  53.2161 263.4117 0001573  96.1529 263.9642 15.08836602181523
STARLINK-4497           
1 53411U 22097Z   25320.57894185  .00008649  00000+0  56029-3 0  9994
2 53411  53.2164 261.8922 0001694  75.7858 284.3322 15.08874598181578
STARLINK-4496           
1 53412U 22097AA  25320.56055246  .00002333  00000+0  16463-3 0  9993
2 53412  53.2168 261.9769 0001631  75.1744 284.9429 15.08839312181571
STARLINK-4500           
1 53413U 22097AB  25320.83286619  .00000469  00000+0  47547-4 0  9990
2 53413  53.2179 260.7542 0001674  89.7438 270.3746 15.08853695181614
STARLINK-4304           
1 53414U 22097AC  25320.82182499  .00005119  00000+0  33925-3 0  9992
2 53414  53.2153 260.8022 0002838  88.0705 272.0612 15.08866515181608
STARLINK-4479           
1 53415U 22097AD  25320.55318742  .00004556  00000+0  30412-3 0  9997
2 53415  53.2175 262.0082 0001412  94.1740 265.9414 15.08844436181549
STARLINK-4480           
1 53416U 22097AE  25320.80341874  .00000450  00000+0  46323-4 0  9996
2 53416  53.2161 260.8367 0001061  80.3906 279.7206 15.08855865181582
STARLINK-4484           
1 53417U 22097AF  25320.54950329  .00014860  00000+0  94900-3 0  9992
2 53417  53.2163 262.0259 0001471  89.9263 270.1898 15.08870192181543
STARLINK-4481           
1 53418U 22097AG  25320.84109356 -.00000034  00000+0  15970-4 0  9992
2 53418  53.2161 250.2817 0001357 104.5261 255.5882 15.08844015181765
STARLINK-4476           
1 53419U 22097AH  25320.14838385 -.00003415  00000+0 -19662-3 0  9995
2 53419  53.2163 263.8266 0001253  89.7419 270.3717 15.08836713181487
STARLINK-4552           
1 53420U 22097AJ  25320.66726750  .00001261  00000+0  97270-4 0  9993
2 53420  53.2178 261.5017 0001501  82.9117 277.2046 15.08844891181566
STARLINK-4545           
1 53421U 22097AK  25320.14470536  .00005529  00000+0  36512-3 0  9997
2 53421  53.2171 263.8449 0001354 100.2286 259.8859 15.08850640181489
STARLINK-4546           
1 53422U 22097AL  25320.12997799  .00000376  00000+0  41722-4 0  9996
2 53422  53.2179 263.9090 0001326  89.8271 270.2873 15.08852441181503
STARLINK-4539           
1 53423U 22097AM  25320.80438227  .00005712  00000+0  37645-3 0  9995
2 53423  53.2167 260.8910 0002640  79.7746 280.3543 15.08864262181581
STARLINK-4532           
1 53424U 22097AN  25320.12263115  .00012476  00000+0  79981-3 0  9997
2 53424  53.2165 263.9413 0001357  76.6465 283.4678 15.08875378181505
STARLINK-4531           
1 53425U 22097AP  25320.39862267  .00008033  00000+0  52200-3 0  9999
2 53425  53.2163 262.7034 0001377 103.4707 256.6438 15.08853847181514
STARLINK-4558           
1 53426U 22097AQ  25320.83012186  .00005800  00000+0  38214-3 0  9994
2 53426  53.2166 250.9200 0001365  78.1625 281.9520 15.08846849181748
STARLINK-4543           
1 53429U 22097AT  25320.82644294  .00005537  00000+0  36558-3 0  9993
2 53429  53.2161 250.8970 0001588  84.7744 275.3430 15.08852410181749
STARLINK-4538           
1 53430U 22097AU  25320.81906859  .00001868  00000+0  13540-3 0  9991
2 53430  53.2149 250.8518 0001707  84.2479 275.8708 15.08855556181723
STARLINK-4548           
1 53431U 22097AV  25320.11613536  .00007360  00000+0  47959-3 0  9996
2 53431  53.2161 253.5871 0002197 100.6767 259.4473 15.08872764181645
STARLINK-4557           
1 53432U 22097AW  25320.52831746  .00009117  00000+0  58983-3 0  9998
2 53432  53.2158 251.8850 0001295 102.5773 257.5364 15.08859972181707
STARLINK-4549           
1 53433U 22097AX  25320.81538015  .00002347  00000+0  16549-3 0  9994
2 53433  53.2163 250.8274 0001533  91.5018 268.6150 15.08843462181722
STARLINK-4498           
1 53434U 22097AY  25320.12719811  .00010920  00000+0  70261-3 0  9991
2 53434  53.2152 253.6442 0001620  81.7684 278.3492 15.08868421181657
STARLINK-4542           
1 53435U 22097AZ  25320.79696360  .00002623  00000+0  18273-3 0  9994
2 53435  53.2173 250.7187 0001847  78.9845 281.1355 15.08857266181726
STARLINK-4527           
1 53436U 22097BA  25320.12353888 -.00050106  00000+0 -31611-2 0  9998
2 53436  53.2168 253.6254 0001207  71.0955 289.0168 15.08737822181649
STARLINK-4526           
1 53438U 22097BC  25320.84846321  .00002085  00000+0  14903-3 0  9995
2 53438  53.2162 250.3292 0001454  93.4462 266.6696 15.08849270181767
